ORBCOMM FM115           
1 41186U 15081H   24302.73603641  .00004732  00000+0  97856-3 0  9999
2 41186  46.9985  59.6284 0000506 270.2933  89.7896 14.61513438473900
ORBCOMM FM108           
1 41187U 15081J   24302.86081692  .00004784  00000+0  10830-2 0  9993
2 41187  47.0023 118.8197 0002515 294.9309  65.1315 14.57305998473043
ORBCOMM FM116           
1 41189U 15081L   24302.47380055  .00004571  00000+0  10363-2 0  9992
2 41189  47.0007 209.3217 0001812  55.2891 304.8164 14.57314126471843
